#dP2023 10 27  6  0  0.00000000      96 __u+U IGS20 EXT  IAC
## 2285 453600.00000000   900.00000000 60244 0.2500000000000
+  119   C06C07C08C09C10C11C12C13C14C16C19C20C21C22C23C24C25
+        C26C27C28C29C30C32C33C34C35C36C37C38C39C40C41C42C43
+        C44C45C46E02E03E04E05E07E08E09E10E11E12E13E14E15E19
+        E21E24E25E26E27E30E31E33E34E36G01G02G03G04G05G06G07
+        G08G09G10G11G12G13G14G15G16G17G18G19G20G21G22G23G24
+        G25G26G27G28G29G30G31G32J02J03J04R01R02R03R04R05R07
+        R08R09R11R12R13R14R15R16R17R18R19R20R21R22R24R25R26
++        11  9 10 11  8  9  8  9  8 10  8  9  9  8  8  9  9
++         8  9  7  8  9  8  9  8  8  9  9  9 10 10  8  8  8
++         8  9  8  8  8  8  8  8  8  7 10  8  8  8  0  8  8
++         8  7  8  8  8  8  8  8  9  9  8  8  8  8  8  8  7
++         8  8  8  7  7  8  9  8  8  8  8  8  8  8  8  8  8
++         7  8  7  8  8  8  8  8 10  9 10  9  9  8  8  8  8
++         9 10 10 11  8 11 11 10  8  8 10  8  8  9  0  7  9
%c M  cc GPS ccc cccc cccc cccc cccc ccccc ccccc ccccc ccccc
%c cc cc ccc ccc cccc cccc cccc cccc ccccc ccccc ccccc ccccc
%f  0.0000000  0.000000000  0.00000000000  0.000000000000000
%f  0.0000000  0.000000000  0.00000000000  0.000000000000000
%i    0    0    0    0      0      0      0      0         0
%i    0    0    0    0      0      0      0      0         0
/* IAC                                ULTRA-RAPID PREDICTION
/* S/V CLOCKS ARE ALIGNED TO GNSS TIME                      
/* G:C1WC2W R:C1PC2P E:C1XC5X C:C2IC6I J:C1CC2S             
/* PCV:IGS20_2280 OL/AL:FES2004  NONE     YN ORB:CoN CLK:CoN
*  2023 10 27  9  0  0.00000000
PC06 -10739.781915  23651.358098  33189.591397     72.414002
PC07 -14465.307280  39624.348187  -2724.788851   -223.011226
PC08    999.513981  31549.302510 -27851.892764    274.500089
PC09  -1467.384177  24623.422501  34620.196568    -11.095942
PC10  -8098.466755  40451.632883  -9674.967544      4.569319
PC11 -27334.363914   3179.243782   4792.298018    225.026984
PC12 -17569.847655  -9135.265671  19713.918279    881.617006
PC13   5900.026174  34718.840178 -22819.004779    373.804350
PC14 -16625.173568   4338.840824 -21993.579672    665.923745
PC16 -16142.226485  22149.853074  32200.226318   -145.693686
PC19  16094.492940 -14582.729844  17529.377966   -973.554855
PC20  14929.064523   4790.002921  23086.977337    168.839317
PC21  -4579.798979 -22983.614383 -15132.027520   -969.092227
PC22   8072.037048 -26659.767507   1509.504129   -249.636913
PC23  -3650.078265  17843.541854  21144.209778   -834.787524
PC24 -22663.932650 -14071.265935   8229.028387    535.810072
PC25 -17958.899268   3828.526808  21009.255323    242.039511
PC26 -14737.261554 -22196.393851  -8378.753437   -197.572463
PC27   9169.237669  13809.377370 -22464.847041    219.399442
PC28 -10012.937409  16924.931005 -19794.004332    165.279638
PC29  25431.114996 -10743.388848   4060.665827    193.261142
PC30  24196.401360   2640.893594 -13666.639014     -7.215771
PC32   4689.743320  23040.372445  15040.106104   -531.506921
PC33 -16039.625735  14593.749366 -17574.767586   -949.836768
PC34 -24894.565103  -1634.254604  12480.627603    290.131916
PC35   9259.025292 -17362.960874  19793.616596    516.284358
PC36  18518.267744  -2623.249017 -20686.053669   -161.173381
PC37  13638.443250  22590.932825   9043.920500   -866.215409
PC38  -6394.501815  27299.877347 -31404.922335    113.812456
PC39 -20508.132700  21768.709791  29665.316094     -5.403125
PC40 -21266.398673  36570.489649   -679.846560    -41.663692
PC41  -8393.569865  26520.471500  -2209.830396   -871.877768
PC42 -14476.517157  -6449.061884 -22932.827707   -512.359096
PC43 -25764.981458  10209.680563  -3200.967980     45.722214
PC44  -9491.643009 -13673.999716  22385.798499    274.276161
PC45   3034.719903 -18116.835124 -21017.426107    -40.211583
PC46  22715.064885  13199.914440  -9349.677631    -95.035990
PE02   1970.956312 -27334.866900 -11209.058324     73.376969
PE03  11419.286925 -23599.874284 -13744.737229    -68.597867
PE04   7327.006540  15963.250549  23824.047488   -243.663224
PE05  23474.498363 -17520.060336   4268.189989     31.455960
PE07 -21680.516347    741.420671 -20143.857060    -84.542521
PE08  -6757.189710 -16218.588796 -23827.997660   -167.708212
PE09  21522.355112   -712.129228  20298.639988   -206.088171
PE10  25008.954527  13419.117520  -8381.249047   -574.273997
PE11  28538.937770   7577.326769   2084.101854   3141.843688
PE12  18017.661849  16797.366419 -16417.097053   -752.843073
PE13 -28467.087865  -8003.467727  -1359.800749    -19.625223
PE14      0.000000      0.000000      0.000000    380.432157
PE15 -17621.552775 -16829.948160  16816.570003    -64.547282
PE19 -13662.983124  23480.457198  11746.891400  -1339.882774
PE21 -13312.238169  13081.804605  22975.997659   -560.864079
PE24  17489.863294  10048.388149 -21666.131869   -398.321914
PE25  13471.669747 -12706.269441 -23085.726214     -3.763475
PE26 -22052.116874   5926.309817 -18834.270128    263.272928
PE27 -17514.518662  -9454.966167  21917.869481   -184.804504
PE30 -11076.423666 -26382.808130   7603.858370   -613.087155
PE31  11340.832137  26154.714793  -7947.970470     -8.714092
PE33  -4080.392658  15467.312198 -24899.805327      1.097300
PE34   3329.120978 -15690.771324  24877.002983    -74.637105
PE36  22496.039122  -5378.166711  18475.422658   -135.630898
PG01  19323.112172  14667.908921 -11546.427785    163.368356
PG02  14991.981218  14724.547859 -15853.813111   -536.829064
PG03  12082.147896  20832.880693  11171.997215    -53.485271
PG04  11978.332144   9622.041134  21680.861281    196.061175
PG05  -5447.919005 -25856.039700   1955.266921   -148.078358
PG06  15807.018848  -8364.644123  19739.086139    521.101101
PG07  25885.476225   5468.647186  -3907.154361     29.415778
PG08   3699.830778  16482.604733 -20475.503068   -149.169419
PG09  19194.799158   -414.138741  18289.915467    -20.643719
PG10 -12128.557560  10368.395843 -20981.130794    -58.982986
PG11   3089.246453 -14918.187371  21778.346046   -433.637217
PG12  -9690.373021 -22907.634003   9145.254923   -440.411854
PG13   7138.952208 -19046.045188 -17164.633682    588.631996
PG14  14363.022920  -6563.124792 -21315.237296    225.933788
PG15  -6862.305861 -15764.925434 -20685.817305     91.153694
PG16  -1394.622514  25381.672845   6519.544152   -432.392563
PG17  22510.377540 -12618.873752  -6107.402679    723.676842
PG18 -25514.916498  -4062.841395  -6553.051065   -461.319213
PG19  20562.172256 -16401.563461   1712.658611    390.603670
PG20   1369.583893 -22808.221581  13740.408929    404.714945
PG21  12233.201184  15451.672584 -17710.973404    145.795586
PG22  11466.229842 -14329.242215 -18851.266689     95.167017
PG23 -15644.145121  -3659.200738 -21174.550492     89.082797
PG24 -16113.067010 -15221.420707 -15323.736175   -356.526360
PG25 -15638.955223 -11938.867817  17644.089373    474.655913
PG26  -6131.833021  20303.818548  15638.307178    220.655569
PG27  -9008.836004  20929.971212 -13543.485108    -61.271022
PG28 -17457.229226   8230.671932  18224.220837    -33.415283
PG29 -18980.454649  -1233.382635  18538.542055   -610.200539
PG30  22856.390596  -2828.178591 -13336.563611   -474.511070
PG31  -9161.780292  12755.730265  21267.310757   -225.111569
PG32 -20709.744787  16113.336764  -3117.825027   -578.179697
PJ02 -26682.677647  26198.084157  24459.067945     -6.453747
PJ03 -32363.580952  16534.707405 -16732.712697     -6.289978
PJ04 -21833.882915  33020.785578  -9541.861057     71.609588
PR01  -5463.572078 -12912.811483 -21313.374861     68.519242
PR02 -13315.226060   4863.841147 -21149.877028    -22.368657
PR03 -13697.938493  19666.186971  -8598.873722     87.857049
PR04  -6769.477277  23124.074075   8364.894257    208.548069
PR05   3894.680022  14191.527619  20830.425549    121.279450
PR07  13583.835786 -20148.926570   7885.115809     67.768396
PR08   6534.958084 -23182.354867  -8406.985535    -73.094686
PR09  16587.921730   7479.431340 -17895.624889    149.903426
PR11  -4794.332490 -19471.708421 -15744.611591   -209.085353
PR12 -15623.917248 -20020.673577   2510.007881     32.792124
PR13 -16809.456259  -9660.199747  16565.587402    -40.625773
PR14  -7473.724286   8590.886407  22838.822734     25.478140
PR15   5560.336780  20124.715637  14677.355400     85.073118
PR16  15625.365793  20068.806014  -2151.539741     20.060590
PR17 -19719.670629   7995.916596 -14089.404409     29.448783
PR18  -3929.757207  10582.840306 -22848.622076    108.916010
PR19  12138.135219   8732.622529 -20656.155705   -252.396020
PR20  25234.306625    747.763270  -3755.227146   -102.499616
PR21  19146.709770  -8056.701260  14785.329112    -48.715951
PR22   3174.787430 -10912.988269  22866.949886     90.626634
PR24      0.000000      0.000000      0.000000    -29.819109
PR25  19973.466917  -7344.758816  14053.147181     -6.354397
PR26   6655.927958 -23290.722202  -7952.214266    -19.152901
EOF
